$$SOE
2461295.500000000, A.D. 2026-Sep-12 00:00:00.0000, -1.868478514189224E+08, -4.188607311706325E+08, -5.649754046576497E+07,
2461302.500000000, A.D. 2026-Sep-19 00:00:00.0000, -1.771069352954321E+08, -4.223140847870383E+08, -5.557113364490536E+07,
2461309.500000000, A.D. 2026-Sep-26 00:00:00.0000, -1.672784289027430E+08, -4.255586231626304E+08, -5.461724597976047E+07,
2461316.500000000, A.D. 2026-Oct-03 00:00:00.0000, -1.573667608236341E+08, -4.285916436124055E+08, -5.363620788908407E+07,
2461323.500000000, A.D. 2026-Oct-10 00:00:00.0000, -1.473764511669964E+08, -4.314105314087681E+08, -5.262836817576358E+07,
2461330.500000000, A.D. 2026-Oct-17 00:00:00.0000, -1.373121103055535E+08, -4.340127633188326E+08, -5.159409414731821E+07,
2461337.500000000, A.D. 2026-Oct-24 00:00:00.0000, -1.271784374759526E+08, -4.363959112579362E+08, -5.053377172736770E+07,
2461344.500000000, A.D. 2026-Oct-31 00:00:00.0000, -1.169802191385504E+08, -4.385576461204333E+08, -4.944780557156962E+07,
2461351.500000000, A.D. 2026-Nov-07 00:00:00.0000, -1.067223267543549E+08, -4.404957417075328E+08, -4.833661921194243E+07,
2461358.500000000, A.D. 2026-Nov-14 00:00:00.0000, -9.640971377504726E+07, -4.422080778579725E+08, -4.720065517424238E+07,
2461365.500000000, A.D. 2026-Nov-21 00:00:00.0000, -8.604741365475909E+07, -4.436926420918287E+08, -4.604037484513861E+07,
2461372.500000000, A.D. 2026-Nov-28 00:00:00.0000, -7.564053987821171E+07, -4.449475327668949E+08, -4.485625824211642E+07,
2461379.500000000, A.D. 2026-Dec-05 00:00:00.0000, -6.519428438225847E+07, -4.459709643962801E+08, -4.364880407061636E+07,
2461386.500000000, A.D. 2026-Dec-12 00:00:00.0000, -5.471391420368108E+07, -4.467612720092618E+08, -4.241852982827550E+07,
2461393.500000000, A.D. 2026-Dec-19 00:00:00.0000, -4.420476823909356E+07, -4.473169145409865E+08, -4.116597178151095E+07,
2461400.500000000, A.D. 2026-Dec-26 00:00:00.0000, -3.367225425827948E+07, -4.476364781101565E+08, -3.989168487114933E+07,
2461407.500000000, A.D. 2027-Jan-02 00:00:00.0000, -2.312184589459705E+07, -4.477186793662457E+08, -3.859624258689708E+07,
2461414.500000000, A.D. 2027-Jan-09 00:00:00.0000, -1.255907949556957E+07, -4.475623688763047E+08, -3.728023681873646E+07,
2461421.500000000, A.D. 2027-Jan-16 00:00:00.0000, -1.989550798935606E+06, -4.471665345327843E+08, -3.594427768695533E+07,
2461428.500000000, A.D. 2027-Jan-23 00:00:00.0000, 8.581088610436419E+06, -4.465303050126814E+08, -3.458899335765478E+07,
2461435.500000000, A.D. 2027-Jan-30 00:00:00.0000, 1.914713524804863E+07, -4.456529533268406E+08, -3.321502986435261E+07,
2461442.500000000, A.D. 2027-Feb-06 00:00:00.0000, 2.970283850296394E+07, -4.445339001103416E+08, -3.182305094639215E+07,
2461449.500000000, A.D. 2027-Feb-13 00:00:00.0000, 4.024240577213664E+07, -4.431727154247448E+08, -3.041373776182732E+07,
2461456.500000000, A.D. 2027-Feb-20 00:00:00.0000, 5.076000558744430E+07, -4.415691198525031E+08, -2.898778832224512E+07,
2461463.500000000, A.D. 2027-Feb-27 00:00:00.0000, 6.124977012735382E+07, -4.397229880860076E+08, -2.754591704000840E+07,
2461470.500000000, A.D. 2027-Mar-06 00:00:00.0000, 7.170580012748519E+07, -4.376343530791808E+08, -2.608885450766692E+07,
2461477.500000000, A.D. 2027-Mar-13 00:00:00.0000, 8.212217058473420E+07, -4.353034087037323E+08, -2.461734719532603E+07,
2461484.500000000, A.D. 2027-Mar-20 00:00:00.0000, 9.249293611904833E+07, -4.327305117356007E+08, -2.313215703053236E+07,
2461491.500000000, A.D. 2027-Mar-27 00:00:00.0000, 1.028121361872977E+08, -4.299161837104569E+08, -2.163406092392570E+07,
2461498.500000000, A.D. 2027-Apr-03 00:00:00.0000, 1.130738003437419E+08, -4.268611126848456E+08, -2.012385026303932E+07,
2461505.500000000, A.D. 2027-Apr-10 00:00:00.0000, 1.232719535998816E+08, -4.235661548676990E+08, -1.860233037802646E+07,
2461512.500000000, A.D. 2027-Apr-17 00:00:00.0000, 1.334006218982639E+08, -4.200323361244298E+08, -1.707031998292288E+07,
2461519.500000000, A.D. 2027-Apr-24 00:00:00.0000, 1.434538377729343E+08, -4.162608534058074E+08, -1.552865060558379E+07,
2461526.500000000, A.D. 2027-May-01 00:00:00.0000, 1.534256464892225E+08, -4.122530760670951E+08, -1.397816603242642E+07,
2461533.500000000, A.D. 2027-May-08 00:00:00.0000, 1.633101129612525E+08, -4.080105463245682E+08, -1.241972173580158E+07,
2461540.500000000, A.D. 2027-May-15 00:00:00.0000, 1.731013279387895E+08, -4.035349778913949E+08, -1.085418406941265E+07,
2461547.500000000, A.D. 2027-May-22 00:00:00.0000, 1.827934118865023E+08, -3.988282553778125E+08, -9.282429300806493E+06,
2461554.500000000, A.D. 2027-May-29 00:00:00.0000, 1.923805198989503E+08, -3.938924359161849E+08, -7.705342909562707E+06,
2461561.500000000, A.D. 2027-Jun-05 00:00:00.0000, 2.018568485242080E+08, -3.887297498733423E+08, -6.123818977342010E+06,
2461568.500000000, A.D. 2027-Jun-12 00:00:00.0000, 2.112166424760528E+08, -3.833426002139785E+08, -4.538759451380223E+06,
2461575.500000000, A.D. 2027-Jun-19 00:00:00.0000, 2.204542008904613E+08, -3.777335614461042E+08, -2.951073328558892E+06,
2461582.500000000, A.D. 2027-Jun-26 00:00:00.0000, 2.295638833922293E+08, -3.719053784065639E+08, -1.361675808204085E+06,
2461589.500000000, A.D. 2027-Jul-03 00:00:00.0000, 2.385401160897656E+08, -3.658609648759671E+08, 2.285125737059861E+05,
2461596.500000000, A.D. 2027-Jul-10 00:00:00.0000, 2.473773975201346E+08, -3.596034020126934E+08, 1.818566824912712E+06,
2461603.500000000, A.D. 2027-Jul-17 00:00:00.0000, 2.560703045653979E+08, -3.531359366435294E+08, 3.407558383809686E+06,
2461610.500000000, A.D. 2027-Jul-24 00:00:00.0000, 2.646134984815775E+08, -3.464619794728282E+08, 4.994555991796568E+06,
2461617.500000000, A.D. 2027-Jul-31 00:00:00.0000, 2.730017314372995E+08, -3.395851029751320E+08, 6.578626530892357E+06,
2461624.500000000, A.D. 2027-Aug-07 00:00:00.0000, 2.812298533471757E+08, -3.325090378220379E+08, 8.158835937493131E+06,
2461631.500000000, A.D. 2027-Aug-14 00:00:00.0000, 2.892928166836240E+08, -3.252376680999960E+08, 9.734250380759284E+06,
2461638.500000000, A.D. 2027-Aug-21 00:00:00.0000, 2.971856798695821E+08, -3.177750286855607E+08, 1.130393737167789E+07,
2461645.500000000, A.D. 2027-Aug-28 00:00:00.0000, 3.049036126691635E+08, -3.101253035776432E+08, 1.286696658394675E+07,
2461652.500000000, A.D. 2027-Sep-04 00:00:00.0000, 3.124419023828053E+08, -3.022928226901727E+08, 1.442241069713292E+07,
2461659.500000000, A.D. 2027-Sep-11 00:00:00.0000, 3.197959594392145E+08, -2.942820577742355E+08, 1.596934633369471E+07,
2461666.500000000, A.D. 2027-Sep-18 00:00:00.0000, 3.269613225045874E+08, -2.860976181283576E+08, 1.750685502212296E+07,
2461673.500000000, A.D. 2027-Sep-25 00:00:00.0000, 3.339336633253359E+08, -2.777442461835718E+08, 1.903402415645422E+07,
2461680.500000000, A.D. 2027-Oct-02 00:00:00.0000, 3.407087913670173E+08, -2.692268129452902E+08, 2.054994794511297E+07,
2461687.500000000, A.D. 2027-Oct-09 00:00:00.0000, 3.472826582598387E+08, -2.605503133066069E+08, 2.205372834421521E+07,
2461694.500000000, A.D. 2027-Oct-16 00:00:00.0000, 3.536513621020061E+08, -2.517198612982098E+08, 2.354447596251114E+07,
2461701.500000000, A.D. 2027-Oct-23 00:00:00.0000, 3.598111518697149E+08, -2.427406852906605E+08, 2.502131091106182E+07,
2461708.500000000, A.D. 2027-Oct-30 00:00:00.0000, 3.657584322996721E+08, -2.336181225493605E+08, 2.648336361087419E+07,
2461715.500000000, A.D. 2027-Nov-06 00:00:00.0000, 3.714897680740869E+08, -2.243576120271853E+08, 2.792977575566204E+07,
2461722.500000000, A.D. 2027-Nov-13 00:00:00.0000, 3.770018853154346E+08, -2.149646874859028E+08, 2.935970144040582E+07,
2461729.500000000, A.D. 2027-Nov-20 00:00:00.0000, 3.822916732843146E+08, -2.054449731458735E+08, 3.077230800875161E+07,
2461736.500000000, A.D. 2027-Nov-27 00:00:00.0000, 3.873561878912230E+08, -1.958041789127140E+08, 3.216677671119139E+07,
2461743.500000000, A.D. 2027-Dec-04 00:00:00.0000, 3.921926549937636E+08, -1.860480942818662E+08, 3.354230343272833E+07,
2461750.500000000, A.D. 2027-Dec-11 00:00:00.0000, 3.967984729236605E+08, -1.761825819006386E+08, 3.489809946009818E+07,
2461757.500000000, A.D. 2027-Dec-18 00:00:00.0000, 4.011712145132363E+08, -1.662135711417474E+08, 3.623339223370485E+07,
2461764.500000000, A.D. 2027-Dec-25 00:00:00.0000, 4.053086287689631E+08, -1.561470517043034E+08, 3.754742606811859E+07,
2461771.500000000, A.D. 2028-Jan-01 00:00:00.0000, 4.092086422314265E+08, -1.459890672407699E+08, 3.883946283675511E+07,
$$EOE